{"type": "FeatureCollection", "features": [ {"type": "Feature", "properties": {"norad_id": 34014, "name": "COSMOS 2251 DEB", "group": "cosmos-2251-debris", "lat": -20.758567928030473, "lon": -111.92906921536009, "alt_km": 639.0459775856662, "timestamp": "2025-12-26T06:43:29.905203+00:00", "meta": {"OBJECT_NAME": "COSMOS 2251 DEB", "OBJECT_ID": "1993-036GZ", "EPOCH": "2025-12-25T19:45:58.507776", "MEAN_MOTION": 14.73289683, "ECCENTRICITY": 0.00376252, "INCLINATION": 74.0164, "RA_OF_ASC_NODE": 255.1986, "ARG_OF_PERICENTER": 31.2343, "MEAN_ANOMALY": 46.7773, "EPHEMERIS_TYPE": 0, "CLASSIFICATION_TYPE": "U", "NORAD_CAT_ID": 34014, "ELEMENT_SET_NO": 999, "REV_AT_EPOCH": 89496, "BSTAR": 0.00094164055, "MEAN_MOTION_DOT": 6.13e-05, "MEAN_MOTION_DDOT": 0}, "tle": {"line1": "1 34014U 93036GZ  25359.82359384  .00006130  00000+0  94164-3 0  9995", "line2": "2 34014  74.0164 255.1986 0037625  31.2343  46.7773 14.73289683894962"}}, "geometry": {"type": "Point", "coordinates": [-111.92906921536009, -20.758567928030473]}}, {"type": "Feature", "properties": {"norad_id": 34015, "name": "COSMOS 2251 DEB", "group": "cosmos-2251-debris", "lat": -7.349148992559793, "lon": -44.327901995541666, "alt_km": 684.5145498939673, "timestamp": "2025-12-26T06:43:29.905214+00:00", "meta": {"OBJECT_NAME": "COSMOS 2251 DEB", "OBJECT_ID": "1993-036HA", "EPOCH": "2025-12-25T20:33:52.056864", "MEAN_MOTION": 14.60406274, "ECCENTRICITY": 0.00209084, "INCLINATION": 74.0239, "RA_OF_ASC_NODE": 134.3632, "ARG_OF_PERICENTER": 231.1476, "MEAN_ANOMALY": 251.6833, "EPHEMERIS_TYPE": 0, "CLASSIFICATION_TYPE": "U", "NORAD_CAT_ID": 34015, "ELEMENT_SET_NO": 999, "REV_AT_EPOCH": 88722, "BSTAR": 0.0012062362, "MEAN_MOTION_DOT": 5.833e-05, "MEAN_MOTION_DDOT": 0}, "tle": {"line1": "1 34015U 93036HA  25359.85685251  .00005833  00000+0  12062-2 0  9999", "line2": "2 34015  74.0239 134.3632 0020908 231.1476 251.6833 14.60406274887224"}}, "geometry": {"type": "Point", "coordinates": [-44.327901995541666, -7.349148992559793]}}, {"type": "Feature", "properties": {"norad_id": 34018, "name": "COSMOS 2251 DEB", "group": "cosmos-2251-debris", "lat": 63.58161856746835, "lon": 104.75447341967013, "alt_km": 791.128123673876, "timestamp": "2025-12-26T06:43:29.905224+00:00", "meta": {"OBJECT_NAME": "COSMOS 2251 DEB", "OBJECT_ID": "1993-036HD", "EPOCH": "2025-12-25T22:14:22.256736", "MEAN_MOTION": 13.81085933, "ECCENTRICITY": 0.02630819, "INCLINATION": 73.878, "RA_OF_ASC_NODE": 69.7495, "ARG_OF_PERICENTER": 103.0979, "MEAN_ANOMALY": 10.1653, "EPHEMERIS_TYPE": 0, "CLASSIFICATION_TYPE": "U", "NORAD_CAT_ID": 34018, "ELEMENT_SET_NO": 999, "REV_AT_EPOCH": 84839, "BSTAR": 0.00033084425, "MEAN_MOTION_DOT": 4.33e-06, "MEAN_MOTION_DDOT": 0}, "tle": {"line1": "1 34018U 93036HD  25359.92664649  .00000433  00000+0  33084-3 0  9997", "line2": "2 34018  73.8780  69.7495 0263081 103.0979  10.1653 13.81085933848399"}}, "geometry": {"type": "Point", "coordinates": [104.75447341967013, 63.58161856746835]}}, {"type": "Feature", "properties": {"norad_id": 34019, "name": "COSMOS 2251 DEB", "group": "cosmos-2251-debris", "lat": -65.86626028186005, "lon": -114.19394982244644, "alt_km": 754.6490665651199, "timestamp": "2025-12-26T06:43:29.905235+00:00", "meta": {"OBJECT_NAME": "COSMOS 2251 DEB", "OBJECT_ID": "1993-036HE", "EPOCH": "2025-12-25T13:24:02.416320", "MEAN_MOTION": 14.33992204, "ECCENTRICITY": 0.0062123, "INCLINATION": 73.9541, "RA_OF_ASC_NODE": 27.1646, "ARG_OF_PERICENTER": 206.4725, "MEAN_ANOMALY": 279.7555, "EPHEMERIS_TYPE": 0, "CLASSIFICATION_TYPE": "U", "NORAD_CAT_ID": 34019, "ELEMENT_SET_NO": 999, "REV_AT_EPOCH": 87704, "BSTAR": 0.00075462, "MEAN_MOTION_DOT": 2.126e-05, "MEAN_MOTION_DDOT": 0}, "tle": {"line1": "1 34019U 93036HE  25359.55836130  .00002126  00000+0  75462-3 0  9990", "line2": "2 34019  73.9541  27.1646 0062123 206.4725 279.7555 14.33992204877047"}}, "geometry": {"type": "Point", "coordinates": [-114.19394982244644, -65.86626028186005]}}, {"type": "Feature", "properties": {"norad_id": 34021, "name": "COSMOS 2251 DEB", "group": "cosmos-2251-debris", "lat": 47.069842690537136, "lon": 122.32661682324034, "alt_km": 735.365323882751, "timestamp": "2025-12-26T06:43:29.905245+00:00", "meta": {"OBJECT_NAME": "COSMOS 2251 DEB", "OBJECT_ID": "1993-036HG", "EPOCH": "2025-12-25T13:59:23.683200", "MEAN_MOTION": 14.49993324, "ECCENTRICITY": 0.0020971, "INCLINATION": 74.0361, "RA_OF_ASC_NODE": 105.7137, "ARG_OF_PERICENTER": 248.5952, "MEAN_ANOMALY": 122.6271, "EPHEMERIS_TYPE": 0, "CLASSIFICATION_TYPE": "U", "NORAD_CAT_ID": 34021, "ELEMENT_SET_NO": 999, "REV_AT_EPOCH": 88816, "BSTAR": 0.00049562, "MEAN_MOTION_DOT": 1.897e-05, "MEAN_MOTION_DDOT": 0}, "tle": {"line1": "1 34021U 93036HG  25359.58291300  .00001897  00000+0  49562-3 0  9996", "line2": "2 34021  74.0361 105.7137 0020971 248.5952 122.6271 14.49993324888161"}}, "geometry": {"type": "Point", "coordinates": [122.32661682324034, 47.069842690537136]}}, {"type": "Feature", "properties": {"norad_id": 34022, "name": "COSMOS 2251 DEB", "group": "cosmos-2251-debris", "lat": 47.80439067880343, "lon": -95.77038997837258, "alt_km": 760.5961292934116, "timestamp": "2025-12-26T06:43:29.905256+00:00", "meta": {"OBJECT_NAME": "COSMOS 2251 DEB", "OBJECT_ID": "1993-036HH", "EPOCH": "2025-12-25T19:09:01.902816", "MEAN_MOTION": 14.38981277, "ECCENTRICITY": 0.00230823, "INCLINATION": 74.0535, "RA_OF_ASC_NODE": 246.7345, "ARG_OF_PERICENTER": 309.6295, "MEAN_ANOMALY": 123.279, "EPHEMERIS_TYPE": 0, "CLASSIFICATION_TYPE": "U", "NORAD_CAT_ID": 34022, "ELEMENT_SET_NO": 999, "REV_AT_EPOCH": 88383, "BSTAR": 0.00020169058, "MEAN_MOTION_DOT": 5.98e-06, "MEAN_MOTION_DDOT": 0}, "tle": {"line1": "1 34022U 93036HH  25359.79793869  .00000598  00000+0  20169-3 0  9996", "line2": "2 34022  74.0535 246.7345 0023082 309.6295 123.2790 14.38981277883831"}}, "geometry": {"type": "Point", "coordinates": [-95.77038997837258, 47.80439067880343]}}, {"type": "Feature", "properties": {"norad_id": 34023, "name": "COSMOS 2251 DEB", "group": "cosmos-2251-debris", "lat": 45.42785142902931, "lon": -116.40947390702867, "alt_km": 751.6643009284862, "timestamp": "2025-12-26T06:43:29.905266+00:00", "meta": {"OBJECT_NAME": "COSMOS 2251 DEB", "OBJECT_ID": "1993-036HJ", "EPOCH": "2025-12-25T19:12:53.480736", "MEAN_MOTION": 14.40585466, "ECCENTRICITY": 0.00189245, "INCLINATION": 74.0237, "RA_OF_ASC_NODE": 227.5723, "ARG_OF_PERICENTER": 321.4214, "MEAN_ANOMALY": 120.0591, "EPHEMERIS_TYPE": 0, "CLASSIFICATION_TYPE": "U", "NORAD_CAT_ID": 34023, "ELEMENT_SET_NO": 999, "REV_AT_EPOCH": 88402, "BSTAR": 0.00026402988, "MEAN_MOTION_DOT": 8.17e-06, "MEAN_MOTION_DDOT": 0}, "tle": {"line1": "1 34023U 93036HJ  25359.80061899  .00000817  00000+0  26403-3 0  9991", "line2": "2 34023  74.0237 227.5723 0018924 321.4214 120.0591 14.40585466884029"}}, "geometry": {"type": "Point", "coordinates": [-116.40947390702867, 45.42785142902931]}}, {"type": "Feature", "properties": {"norad_id": 34024, "name": "COSMOS 2251 DEB", "group": "cosmos-2251-debris", "lat": 14.07588319279882, "lon": 107.06332774048713, "alt_km": 789.6493751482694, "timestamp": "2025-12-26T06:43:29.905277+00:00", "meta": {"OBJECT_NAME": "COSMOS 2251 DEB", "OBJECT_ID": "1993-036HK", "EPOCH": "2025-12-25T05:24:22.584096", "MEAN_MOTION": 14.35409875, "ECCENTRICITY": 0.0021572, "INCLINATION": 74.047, "RA_OF_ASC_NODE": 293.1089, "ARG_OF_PERICENTER": 341.2015, "MEAN_ANOMALY": 134.8477, "EPHEMERIS_TYPE": 0, "CLASSIFICATION_TYPE": "U", "NORAD_CAT_ID": 34024, "ELEMENT_SET_NO": 999, "REV_AT_EPOCH": 88203, "BSTAR": 0.00020067, "MEAN_MOTION_DOT": 5.51e-06, "MEAN_MOTION_DDOT": 0}, "tle": {"line1": "1 34024U 93036HK  25359.22526139  .00000551  00000+0  20067-3 0  9996", "line2": "2 34024  74.0470 293.1089 0021572 341.2015 134.8477 14.35409875882033"}}, "geometry": {"type": "Point", "coordinates": [107.06332774048713, 14.07588319279882]}}, {"type": "Feature", "properties": {"norad_id": 34026, "name": "COSMOS 2251 DEB", "group": "cosmos-2251-debris", "lat": -58.32669172931269, "lon": 162.94659932006118, "alt_km": 885.9557061586729, "timestamp": "2025-12-26T06:43:29.905300+00:00", "meta": {"OBJECT_NAME": "COSMOS 2251 DEB", "OBJECT_ID": "1993-036HM", "EPOCH": "2025-12-25T00:00:06.887808", "MEAN_MOTION": 13.65323017, "ECCENTRICITY": 0.0349583, "INCLINATION": 73.7668, "RA_OF_ASC_NODE": 316.8973, "ARG_OF_PERICENTER": 185.0257, "MEAN_ANOMALY": 244.2207, "EPHEMERIS_TYPE": 0, "CLASSIFICATION_TYPE": "U", "NORAD_CAT_ID": 34026, "ELEMENT_SET_NO": 999, "REV_AT_EPOCH": 83699, "BSTAR": 0.00042875556, "MEAN_MOTION_DOT": 5.06e-06, "MEAN_MOTION_DDOT": 0}, "tle": {"line1": "1 34026U 93036HM  25359.00007972  .00000506  00000+0  42876-3 0  9995", "line2": "2 34026  73.7668 316.8973 0349583 185.0257 244.2207 13.65323017836998"}}, "geometry": {"type": "Point", "coordinates": [162.94659932006118, -58.32669172931269]}}, {"type": "Feature", "properties": {"norad_id": 34028, "name": "COSMOS 2251 DEB", "group": "cosmos-2251-debris", "lat": -58.32622190338815, "lon": 174.43360444501624, "alt_km": 1495.6964109914734, "timestamp": "2025-12-26T06:43:29.905312+00:00", "meta": {"OBJECT_NAME": "COSMOS 2251 DEB", "OBJECT_ID": "1993-036HP", "EPOCH": "2025-12-25T15:51:04.913856", "MEAN_MOTION": 13.20634107, "ECCENTRICITY": 0.0543469, "INCLINATION": 73.884, "RA_OF_ASC_NODE": 327.4411, "ARG_OF_PERICENTER": 103.0652, "MEAN_ANOMALY": 69.802, "EPHEMERIS_TYPE": 0, "CLASSIFICATION_TYPE": "U", "NORAD_CAT_ID": 34028, "ELEMENT_SET_NO": 999, "REV_AT_EPOCH": 81178, "BSTAR": 0.00053402, "MEAN_MOTION_DOT": 4.55e-06, "MEAN_MOTION_DDOT": 0}, "tle": {"line1": "1 34028U 93036HP  25359.66047354  .00000455  00000+0  53402-3 0  9997", "line2": "2 34028  73.8840 327.4411 0543469 103.0652  69.8020 13.20634107811786"}}, "geometry": {"type": "Point", "coordinates": [174.43360444501624, -58.32622190338815]}}]}